SENTINEL-2A             
1 40697U 15028A   26196.95595775 -.00000028  00000+0  58463-5 0  9999
2 40697  98.5683 271.3977 0001279  94.7392 265.3937 14.30814211577847
SENTINEL-2B             
1 42063U 17013A   26196.94876830  .00000014  00000+0  22102-4 0  9991
2 42063  98.5691 271.3159 0001203  89.8567 270.2753 14.30815055488752
SENTINEL-2C             
1 60989U 24157A   26196.77395792  .00000045  00000+0  33758-4 0  9992
2 60989  98.5684 271.1502 0000965 104.1193 256.0097 14.30815758 97075
